[{"OBJECT_NAME":"IRIDIUM 129","OBJECT_ID":"2017-061D","EPOCH":"2026-03-09T22:44:30.673536","MEAN_MOTION":14.34217481,"ECCENTRICITY":0.0002338,"INCLINATION":86.3914,"RA_OF_ASC_NODE":66.7388,"ARG_OF_PERICENTER":83.3381,"MEAN_ANOMALY":276.8081,"EPHEMERIS_TYPE":0,"CLASSIFICATION_TYPE":"U","NORAD_CAT_ID":42958,"ELEMENT_SET_NO":999,"REV_AT_EPOCH":44057,"BSTAR":-5.174136e-6,"MEAN_MOTION_DOT":5.0e-8,"MEAN_MOTION_DDOT":0},{"OBJECT_NAME":"CZ-6A DEB","OBJECT_ID":"2024-140AU","EPOCH":"2026-03-09T14:59:44.081664","MEAN_MOTION":14.44138227,"ECCENTRICITY":0.0048646,"INCLINATION":88.9664,"RA_OF_ASC_NODE":281.5992,"ARG_OF_PERICENTER":319.0242,"MEAN_ANOMALY":40.7309,"EPHEMERIS_TYPE":0,"CLASSIFICATION_TYPE":"U","NORAD_CAT_ID":60643,"ELEMENT_SET_NO":999,"REV_AT_EPOCH":8338,"BSTAR":0.0012369,"MEAN_MOTION_DOT":4.314e-5,"MEAN_MOTION_DDOT":0}]
